API VERSION: 1.2
API SOURCE: NASA/JPL Horizons API



*******************************************************************************
Ephemeris / API_USER Mon Oct 30 14:05:19 2023 Pasadena, USA      / Horizons    
*******************************************************************************
Target body name: Moon (301)                      {source: DE441}
Center body name: Earth (399)                     {source: DE441}
Center-site name: GEOCENTRIC
*******************************************************************************
Start time      : A.D. 2049-Jan-01 00:00:00.0000 UT      
Stop  time      : A.D. 2050-Jan-01 00:00:00.0000 UT      
Step-size       : 60 minutes
*******************************************************************************
Target pole/equ : MOON_ME                         {East-longitude positive}
Target radii    : 1737.4, 1737.4, 1737.4 km       {Equator_a, b, pole_c}       
Center geodetic : 0.0, 0.0, -6378.137             {E-lon(deg),Lat(deg),Alt(km)}
Center cylindric: 0.0, 0.0, 0.0                   {E-lon(deg),Dxy(km),Dz(km)}
Center pole/equ : ITRF93                          {East-longitude positive}
Center radii    : 6378.137, 6378.137, 6356.752 km {Equator_a, b, pole_c}       
Target primary  : Earth
Vis. interferer : MOON (R_eq= 1737.400) km        {source: DE441}
Rel. light bend : Sun                             {source: DE441}
Rel. lght bnd GM: 1.3271E+11 km^3/s^2                                          
Atmos refraction: NO (AIRLESS)
RA format       : HMS
Time format     : CAL 
Calendar mode   : Mixed Julian/Gregorian
EOP file        : eop.231027.p240119                                           
EOP coverage    : DATA-BASED 1962-JAN-20 TO 2023-OCT-27. PREDICTS-> 2024-JAN-18
Units conversion: 1 au= 149597870.700 km, c= 299792.458 km/s, 1 day= 86400.0 s 
Table cut-offs 1: Elevation (-90.0deg=NO ),Airmass (>38.000=NO), Daylight (NO )
Table cut-offs 2: Solar elongation (  0.0,180.0=NO ),Local Hour Angle( 0.0=NO )
Table cut-offs 3: RA/DEC angular rate (     0.0=NO )                           
Table format    : Comma Separated Values (spreadsheet)
***********************************************************************************************************************************************
 Date__(UT)__HR:MN, , , R.A._(ICRF), DEC__(ICRF),      Illu%,  ObsSub-LON, ObsSub-LAT,  SunSub-LON, SunSub-LAT,    NP.ang,  NP.dist,     S-T-O,
***********************************************************************************************************************************************
$$SOE
 2049-Jul-11 06:00, , , 15 31 06.39, -20 12 38.9,   79.95120,  353.267111,   1.458941,   46.414902,  -0.998168,   15.1771,  965.366,   53.1966,
 2049-Jul-11 07:00, , , 15 33 34.88, -20 18 00.9,   80.33077,  353.301802,   1.391636,   45.906524,  -0.999079,   14.9751,  966.034,   52.6514,
 2049-Jul-11 08:00, , , 15 36 03.76, -20 23 15.6,   80.70814,  353.337272,   1.324098,   45.398156,  -0.999992,   14.7711,  966.698,   52.1055,
 2049-Jul-11 09:00, , , 15 38 33.01, -20 28 22.8,   81.08324,  353.373523,   1.256334,   44.889799,  -1.000908,   14.5649,  967.360,   51.5587,
 2049-Jul-11 10:00, , , 15 41 02.62, -20 33 22.4,   81.45604,  353.410552,   1.188351,   44.381452,  -1.001828,   14.3567,  968.018,   51.0112,
 2049-Jul-11 11:00, , , 15 43 32.61, -20 38 14.5,   81.82648,  353.448361,   1.120156,   43.873115,  -1.002750,   14.1465,  968.673,   50.4629,
 2049-Jul-11 12:00, , , 15 46 02.96, -20 42 58.8,   82.19452,  353.486949,   1.051755,   43.364788,  -1.003676,   13.9343,  969.324,   49.9139,
 2049-Jul-11 13:00, , , 15 48 33.67, -20 47 35.3,   82.56012,  353.526315,   0.983156,   42.856472,  -1.004604,   13.7200,  969.972,   49.3641,
 2049-Jul-11 14:00, , , 15 51 04.73, -20 52 03.9,   82.92321,  353.566459,   0.914366,   42.348165,  -1.005535,   13.5038,  970.616,   48.8135,
 2049-Jul-11 15:00, , , 15 53 36.15, -20 56 24.7,   83.28376,  353.607379,   0.845392,   41.839869,  -1.006469,   13.2857,  971.256,   48.2621,
 2049-Jul-11 16:00, , , 15 56 07.92, -21 00 37.4,   83.64171,  353.649076,   0.776241,   41.331583,  -1.007406,   13.0656,  971.892,   47.7101,
 2049-Jul-11 17:00, , , 15 58 40.03, -21 04 42.0,   83.99702,  353.691547,   0.706921,   40.823306,  -1.008346,   12.8437,  972.524,   47.1572,
 2049-Jul-11 18:00, , , 16 01 12.48, -21 08 38.5,   84.34964,  353.734791,   0.637439,   40.315039,  -1.009288,   12.6198,  973.151,   46.6036,
 2049-Jul-11 19:00, , , 16 03 45.26, -21 12 26.7,   84.69952,  353.778808,   0.567802,   39.806782,  -1.010234,   12.3941,  973.774,   46.0493,
 2049-Jul-11 20:00, , , 16 06 18.38, -21 16 06.7,   85.04660,  353.823595,   0.498019,   39.298534,  -1.011182,   12.1666,  974.393,   45.4943,
 2049-Jul-11 21:00, , , 16 08 51.82, -21 19 38.3,   85.39085,  353.869151,   0.428097,   38.790296,  -1.012133,   11.9373,  975.007,   44.9385,
 2049-Jul-11 22:00, , , 16 11 25.59, -21 23 01.4,   85.73222,  353.915475,   0.358044,   38.282068,  -1.013087,   11.7061,  975.617,   44.3820,
 2049-Jul-11 23:00, , , 16 13 59.67, -21 26 16.1,   86.07064,  353.962564,   0.287868,   37.773849,  -1.014043,   11.4733,  976.221,   43.8247,
 2049-Jul-12 00:00, , , 16 16 34.06, -21 29 22.1,   86.40609,  354.010416,   0.217577,   37.265639,  -1.015002,   11.2387,  976.820,   43.2668,
 2049-Jul-12 01:00, , , 16 19 08.75, -21 32 19.6,   86.73850,  354.059029,   0.147178,   36.757439,  -1.015964,   11.0025,  977.415,   42.7081,
 2049-Jul-12 02:00, , , 16 21 43.75, -21 35 08.3,   87.06782,  354.108401,   0.076681,   36.249247,  -1.016928,   10.7646,  978.004,   42.1488,
 2049-Jul-12 03:00, , , 16 24 19.04, -21 37 48.3,   87.39402,  354.158529,   0.006092,   35.741065,  -1.017895,   10.5250,  978.587,   41.5887,
 2049-Jul-12 04:00, , , 16 26 54.62, -21 40 19.5,   87.71705,  354.209410,  -0.064579,   35.232892,  -1.018864,   10.2839, -979.165,   41.0280,
 2049-Jul-12 05:00, , , 16 29 30.47, -21 42 41.7,   88.03684,  354.261043,  -0.135324,   34.724727,  -1.019836,   10.0412, -979.738,   40.4666,
 2049-Jul-12 06:00, , , 16 32 06.61, -21 44 55.1,   88.35336,  354.313423,  -0.206135,   34.216572,  -1.020811,    9.7969, -980.305,   39.9045,
 2049-Jul-12 07:00, , , 16 34 43.01, -21 46 59.4,   88.66656,  354.366547,  -0.277003,   33.708425,  -1.021788,    9.5512, -980.865,   39.3417,
 2049-Jul-12 08:00, , , 16 37 19.68, -21 48 54.7,   88.97639,  354.420413,  -0.347920,   33.200287,  -1.022767,    9.3039, -981.420,   38.7783,
 2049-Jul-12 09:00, , , 16 39 56.60, -21 50 40.9,   89.28280,  354.475017,  -0.418876,   32.692158,  -1.023749,    9.0553, -981.969,   38.2142,
 2049-Jul-12 10:00, , , 16 42 33.78, -21 52 17.9,   89.58575,  354.530355,  -0.489864,   32.184037,  -1.024733,    8.8052, -982.512,   37.6495,
 2049-Jul-12 11:00, , , 16 45 11.19, -21 53 45.7,   89.88518,  354.586424,  -0.560874,   31.675924,  -1.025719,    8.5538, -983.048,   37.0842,
 2049-Jul-12 12:00, , , 16 47 48.85, -21 55 04.3,   90.18106,  354.643219,  -0.631898,   31.167820,  -1.026708,    8.3011, -983.578,   36.5182,
 2049-Jul-12 13:00, , , 16 50 26.73, -21 56 13.6,   90.47332,  354.700737,  -0.702927,   30.659723,  -1.027699,    8.0470, -984.101,   35.9516,
 2049-Jul-12 14:00, , , 16 53 04.83, -21 57 13.5,   90.76194,  354.758973,  -0.773951,   30.151635,  -1.028692,    7.7917, -984.617,   35.3845,
 2049-Jul-12 15:00, , , 16 55 43.15, -21 58 04.0,   91.04685,  354.817923,  -0.844961,   29.643555,  -1.029688,    7.5352, -985.127,   34.8167,
 2049-Jul-12 16:00, , , 16 58 21.67, -21 58 45.1,   91.32802,  354.877582,  -0.915949,   29.135483,  -1.030686,    7.2775, -985.630,   34.2484,
 2049-Jul-12 17:00, , , 17 01 00.39, -21 59 16.7,   91.60539,  354.937947,  -0.986905,   28.627419,  -1.031685,    7.0187, -986.126,   33.6795,
 2049-Jul-12 18:00, , , 17 03 39.31, -21 59 38.8,   91.87893,  354.999011,  -1.057821,   28.119362,  -1.032687,    6.7587, -986.614,   33.1100,
 2049-Jul-12 19:00, , , 17 06 18.41, -21 59 51.4,   92.14859,  355.060769,  -1.128686,   27.611313,  -1.033691,    6.4977, -987.096,   32.5400,
 2049-Jul-12 20:00, , , 17 08 57.69, -21 59 54.4,   92.41432,  355.123217,  -1.199491,   27.103271,  -1.034697,    6.2357, -987.570,   31.9695,
 2049-Jul-12 21:00, , , 17 11 37.13, -21 59 47.8,   92.67608,  355.186350,  -1.270227,   26.595237,  -1.035705,    5.9727, -988.037,   31.3985,
 2049-Jul-12 22:00, , , 17 14 16.73, -21 59 31.6,   92.93382,  355.250161,  -1.340885,   26.087210,  -1.036715,    5.7088, -988.496,   30.8269,
 2049-Jul-12 23:00, , , 17 16 56.49, -21 59 05.6,   93.18750,  355.314644,  -1.411455,   25.579191,  -1.037727,    5.4439, -988.947,   30.2549,
 2049-Jul-13 00:00, , , 17 19 36.39, -21 58 30.0,   93.43708,  355.379795,  -1.481927,   25.071178,  -1.038740,    5.1782, -989.391,   29.6824,
 2049-Jul-13 01:00, , , 17 22 16.43, -21 57 44.7,   93.68251,  355.445607,  -1.552293,   24.563172,  -1.039756,    4.9117, -989.827,   29.1095,
 2049-Jul-13 02:00, , , 17 24 56.60, -21 56 49.7,   93.92376,  355.512073,  -1.622541,   24.055173,  -1.040773,    4.6444, -990.255,   28.5361,
 2049-Jul-13 03:00, , , 17 27 36.88, -21 55 44.9,   94.16077,  355.579188,  -1.692663,   23.547181,  -1.041792,    4.3763, -990.675,   27.9624,
 2049-Jul-13 04:00, , , 17 30 17.28, -21 54 30.3,   94.39352,  355.646944,  -1.762650,   23.039196,  -1.042813,    4.1076, -991.087,   27.3882,
 2049-Jul-13 05:00, , , 17 32 57.78, -21 53 06.0,   94.62195,  355.715336,  -1.832490,   22.531217,  -1.043835,    3.8382, -991.491,   26.8137,
 2049-Jul-13 06:00, , , 17 35 38.38, -21 51 31.8,   94.84602,  355.784356,  -1.902175,   22.023244,  -1.044859,    3.5682, -991.886,   26.2388,
 2049-Jul-13 07:00, , , 17 38 19.06, -21 49 47.9,   95.06571,  355.853996,  -1.971694,   21.515278,  -1.045884,    3.2977, -992.273,   25.6636,
 2049-Jul-13 08:00, , , 17 40 59.82, -21 47 54.2,   95.28096,  355.924251,  -2.041039,   21.007318,  -1.046911,    3.0266, -992.652,   25.0881,
